OBJECT_NAME,OBJECT_ID,EPOCH,MEAN_MOTION,ECCENTRICITY,INCLINATION,RA_OF_ASC_NODE,ARG_OF_PERICENTER,MEAN_ANOMALY,EPHEMERIS_TYPE,CLASSIFICATION_TYPE,NORAD_CAT_ID,ELEMENT_SET_NO,REV_AT_EPOCH,BSTAR,MEAN_MOTION_DOT,MEAN_MOTION_DDOT
AMOS-4,2013-045A,2026-06-20T02:52:21.804384,1.00272245,.00025712,0.0115,299.3424,122.6433,314.4515,0,U,39237,999,4698,0,.2E-7,0
AEHF-3 (USA 246),2013-050A,2026-06-20T09:28:26.669568,1.00273393,.0087858,5.3010,67.1548,188.0159,31.2798,0,U,39256,999,4568,0,.23E-6,0
ASTRA 2E,2013-056A,2026-06-20T07:49:56.472384,1.00274051,.000279,0.0717,317.8743,144.5096,312.1587,0,U,39285,999,4644,0,.146E-5,0
FM-6,2013-058A,2026-06-20T08:46:26.645952,1.00271043,.00014,0.0369,53.5945,119.5580,110.7383,0,U,39360,999,4610,0,0,0
RADUGA-1M 3,2013-062A,2026-06-18T19:09:38.685888,1.00273348,.00018039,5.9627,72.3351,267.8367,249.2637,0,U,39375,999,4612,0,.144E-5,0
SES-8,2013-071A,2026-06-20T08:08:58.753824,1.00271927,.0002743,0.0166,297.5628,151.4996,36.7317,0,U,39460,999,4446,0,-.274E-5,0
INMARSAT 5-F1,2013-073A,2026-06-20T00:29:49.235136,1.00271043,.00005858,0.0172,24.3286,304.0026,9.9817,0,U,39476,999,4560,0,.23E-6,0
TKSAT-1 (TUPAC KATARI),2013-075A,2026-06-20T08:59:37.281120,1.00273277,.0002607,0.0366,192.3780,248.3219,235.5765,0,U,39481,999,4563,0,-.199E-5,0
EXPRESS-AM5,2013-077A,2026-06-21T13:56:59.060832,1.00271926,.0000278,0.0148,293.4123,48.4894,277.1456,0,U,39487,999,4640,0,-.281E-5,0
GSAT-14,2014-001A,2026-06-20T09:45:36.464256,1.00271396,.0000794,0.0443,96.3297,170.7037,221.9650,0,U,39498,999,4541,0,-.81E-6,0
THAICOM 6,2014-002A,2026-06-20T09:46:51.345408,1.00272328,.0004448,0.0737,106.6790,4.5118,22.6433,0,U,39500,999,4549,0,-.126E-5,0
TDRS 12,2014-004A,2026-06-20T09:12:43.527168,1.00265941,.0003091,3.9809,19.1631,194.6527,151.8973,0,U,39504,999,4430,0,-.277E-5,0
ABS-2,2014-006A,2026-06-20T09:45:51.439104,1.00271130,.0003823,0.0181,333.2577,99.9811,56.7515,0,U,39508,999,4531,0,-.9E-6,0
ATHENA-FIDUS,2014-006B,2026-06-20T06:09:57.041280,1.00270703,.0001319,0.0370,95.0650,351.4707,312.2200,0,U,39509,999,4511,0,.149E-5,0
TURKSAT 4A,2014-007A,2026-06-20T04:28:32.767104,1.00267919,.0001004,0.0668,288.2837,16.0389,73.2267,0,U,39522,999,4499,0,.141E-5,0
EXPRESS-AT1,2014-010A,2026-06-21T11:22:20.640864,1.00304441,.0003873,0.2700,85.5903,44.0452,13.4417,0,U,39612,999,4486,0,.18E-6,0
EXPRESS-AT2,2014-010B,2026-06-20T06:14:49.075008,1.00274646,.0000823,0.0175,318.6576,346.7956,112.7065,0,U,39613,999,4452,0,.73E-6,0
AMAZONAS 4A,2014-011A,2026-06-20T09:03:21.922848,1.00272928,.0003921,0.0587,178.4109,293.4493,218.5631,0,U,39616,999,4474,0,-.257E-5,0
ASTRA 5B,2014-011B,2026-06-20T07:48:34.102080,1.00268988,.0002057,0.0635,312.5910,113.5023,343.0777,0,U,39617,999,4469,0,.132E-5,0
IRNSS-1B,2014-017A,2026-06-19T18:16:25.595040,1.00277178,.00231505,28.9179,240.3593,189.6008,167.3236,0,U,39635,999,4481,0,.109E-5,0
LUCH-5V,2014-023A,2026-06-21T04:07:38.534592,1.00273075,.0001946,5.1436,69.7087,48.4046,307.9045,0,U,39727,999,4439,0,-.273E-5,0
KAZSAT-3,2014-023B,2026-06-19T23:44:46.166208,1.00274079,.00003353,0.0153,31.8994,33.0502,257.9533,0,U,39728,999,4248,0,.55E-6,0
EUTELSAT 3B,2014-030A,2026-06-20T09:25:19.818336,1.00271871,.0004071,0.0693,24.2659,62.9003,325.8468,0,U,39773,999,4409,0,.15E-6,0
ASIASAT 8 (AMOS-7),2014-046A,2026-06-20T09:54:35.601120,1.00272598,.0001402,0.0253,67.9261,19.3197,75.3344,0,U,40107,999,10218,0,-.337E-5,0
ASIASAT 6,2014-052A,2026-06-21T13:21:10.958976,1.00271631,.0000873,0.0406,85.5918,13.7399,130.6248,0,U,40141,999,4312,0,-.363E-5,0
OPTUS 10,2014-054A,2026-06-19T23:44:38.739264,1.00271094,.00019894,0.0657,58.3139,23.8366,338.2294,0,U,40146,999,4305,0,-.152E-5,0
MEASAT-3B,2014-054B,2026-06-20T08:07:51.361824,1.00277376,.0002872,0.0309,28.9853,40.5543,52.4961,0,U,40147,999,4294,0,-.247E-5,0
HIMAWARI-8,2014-060A,2026-06-20T11:03:40.391424,1.00270806,.0001168,0.0187,51.4118,42.2924,121.5465,0,U,40267,999,4279,0,-.28E-5,0
IRNSS-1C,2014-061A,2026-06-19T18:59:25.063584,1.00268918,.00226825,6.5240,88.8821,2.7462,184.1889,0,U,40269,999,4271,0,-.168E-5,0
INTELSAT 30 (IS-30),2014-062A,2026-06-20T03:49:21.257184,1.00256820,.00010173,0.0266,53.4926,9.4262,167.7293,0,U,40271,999,682,0,-.154E-5,0
ARSAT 1,2014-062B,2026-06-20T09:03:59.364288,1.00272447,.0001844,0.0120,4.0555,74.6952,254.0256,0,U,40272,999,4265,0,-.264E-5,0
EUTELSAT 53A,2014-064A,2026-06-21T14:44:51.394272,1.00271602,.0001049,0.0138,311.9469,229.1735,2.8968,0,U,40277,999,4161,0,.97E-6,0
