AMOS-4                  
1 39237U 13045A   26171.11969681  .00000002  00000+0  00000+0 0  9995
2 39237   0.0115 299.3424 0002571 122.6433 314.4515  1.00272245 46985
AEHF-3 (USA 246)        
1 39256U 13050A   26171.39475312  .00000023  00000+0  00000+0 0  9998
2 39256   5.3010  67.1548 0087858 188.0159  31.2798  1.00273393 45686
ASTRA 2E                
1 39285U 13056A   26171.32634806  .00000146  00000+0  00000+0 0  9990
2 39285   0.0717 317.8743 0002790 144.5096 312.1587  1.00274051 46449
FM-6                    
1 39360U 13058A   26171.36558618  .00000000  00000+0  00000+0 0  9995
2 39360   0.0369  53.5945 0001400 119.5580 110.7383  1.00271043 46108
RADUGA-1M 3             
1 39375U 13062A   26169.79836442  .00000144  00000+0  00000+0 0  9993
2 39375   5.9627  72.3351 0001803 267.8367 249.2637  1.00273348 46124
SES-8                   
1 39460U 13071A   26171.33956891 -.00000274  00000+0  00000+0 0  9997
2 39460   0.0166 297.5628 0002743 151.4996  36.7317  1.00271927 44461
INMARSAT 5-F1           
1 39476U 13073A   26171.02070874  .00000023  00000+0  00000+0 0  9991
2 39476   0.0172  24.3286 0000585 304.0026   9.9817  1.00271043 45606
TKSAT-1 (TUPAC KATARI)  
1 39481U 13075A   26171.37473705 -.00000199  00000+0  00000+0 0  9992
2 39481   0.0366 192.3780 0002607 248.3219 235.5765  1.00273277 45636
EXPRESS-AM5             
1 39487U 13077A   26172.58123913 -.00000281  00000+0  00000+0 0  9999
2 39487   0.0148 293.4123 0000278  48.4894 277.1456  1.00271926 46408
GSAT-14                 
1 39498U 14001A   26171.40667204 -.00000081  00000+0  00000+0 0  9993
2 39498   0.0443  96.3297 0000794 170.7037 221.9650  1.00271396 45415
THAICOM 6               
1 39500U 14002A   26171.40753872 -.00000126  00000+0  00000+0 0  9995
2 39500   0.0737 106.6790 0004448   4.5118  22.6433  1.00272328 45491
TDRS 12                 
1 39504U 14004A   26171.38383712 -.00000277  00000+0  00000+0 0  9997
2 39504   3.9809  19.1631 0003091 194.6527 151.8973  1.00265941 44303
ABS-2                   
1 39508U 14006A   26171.40684536 -.00000090  00000+0  00000+0 0  9997
2 39508   0.0181 333.2577 0003823  99.9811  56.7515  1.00271130 45317
ATHENA-FIDUS            
1 39509U 14006B   26171.25691020  .00000149  00000+0  00000+0 0  9991
2 39509   0.0370  95.0650 0001319 351.4707 312.2200  1.00270703 45115
TURKSAT 4A              
1 39522U 14007A   26171.18649036  .00000141  00000+0  00000+0 0  9991
2 39522   0.0668 288.2837 0001004  16.0389  73.2267  1.00267919 44991
EXPRESS-AT1             
1 39612U 14010A   26172.47385001  .00000018  00000+0  00000+0 0  9990
2 39612   0.2700  85.5903 0003873  44.0452  13.4417  1.00304441 44861
EXPRESS-AT2             
1 39613U 14010B   26171.26029022  .00000073  00000+0  00000+0 0  9996
2 39613   0.0175 318.6576 0000823 346.7956 112.7065  1.00274646 44523
AMAZONAS 4A             
1 39616U 14011A   26171.37733707 -.00000257  00000+0  00000+0 0  9999
2 39616   0.0587 178.4109 0003921 293.4493 218.5631  1.00272928 44742
ASTRA 5B                
1 39617U 14011B   26171.32539470  .00000132  00000+0  00000+0 0  9997
2 39617   0.0635 312.5910 0002057 113.5023 343.0777  1.00268988 44698
IRNSS-1B                
1 39635U 14017A   26170.76140735  .00000109  00000+0  00000+0 0  9996
2 39635  28.9179 240.3593 0023150 189.6008 167.3236  1.00277178 44811
LUCH-5V                 
1 39727U 14023A   26172.17197378 -.00000273  00000+0  00000+0 0  9990
2 39727   5.1436  69.7087 0001946  48.4046 307.9045  1.00273075 44395
KAZSAT-3                
1 39728U 14023B   26170.98942322  .00000055  00000+0  00000+0 0  9992
2 39728   0.0153  31.8994 0000335  33.0502 257.9533  1.00274079 42480
EUTELSAT 3B             
1 39773U 14030A   26171.39259049  .00000015  00000+0  00000+0 0  9999
2 39773   0.0693  24.2659 0004071  62.9003 325.8468  1.00271871 44099
ASIASAT 8 (AMOS-7)      
1 40107U 14046A   26171.41291205 -.00000337  00000+0  00000+0 0  9990
2 40107   0.0253  67.9261 0001402  19.3197  75.3344  1.00272598102184
ASIASAT 6               
1 40141U 14052A   26172.55637684 -.00000363  00000+0  00000+0 0  9995
2 40141   0.0406  85.5918 0000873  13.7399 130.6248  1.00271631 43123
OPTUS 10                
1 40146U 14054A   26170.98933726 -.00000152  00000+0  00000+0 0  9999
2 40146   0.0657  58.3139 0001989  23.8366 338.2294  1.00271094 43056
MEASAT-3B               
1 40147U 14054B   26171.33878891 -.00000247  00000+0  00000+0 0  9996
2 40147   0.0309  28.9853 0002872  40.5543  52.4961  1.00277376 42944
HIMAWARI-8              
1 40267U 14060A   26171.46088416 -.00000280  00000+0  00000+0 0  9993
2 40267   0.0187  51.4118 0001168  42.2924 121.5465  1.00270806 42796
IRNSS-1C                
1 40269U 14061A   26170.79126231 -.00000168  00000+0  00000+0 0  9994
2 40269   6.5240  88.8821 0022682   2.7462 184.1889  1.00268918 42714
INTELSAT 30 (IS-30)     
1 40271U 14062A   26171.15927381 -.00000154  00000+0  00000+0 0  9999
2 40271   0.0266  53.4926 0001017   9.4262 167.7293  1.00256820  6826
ARSAT 1                 
1 40272U 14062B   26171.37777042 -.00000264  00000+0  00000+0 0  9993
2 40272   0.0120   4.0555 0001844  74.6952 254.0256  1.00272447 42657
EUTELSAT 53A            
1 40277U 14064A   26172.61448373  .00000097  00000+0  00000+0 0  9993
2 40277   0.0138 311.9469 0001049 229.1735   2.8968  1.00271602 41614
